IRIDIUM 921 [-]         
1 24873U 97034E   23356.53295366  .00022948  00000+0  80874-3 0  9999
2 24873  86.3861  15.2670 0004659 167.8332 192.3029 15.29155686447956
IRIDIUM 26 [-]          
1 24903U 97043A   23356.46248318  .00000771  00000+0  25822-3 0  9992
2 24903  86.3957 338.3386 0002468  90.1499 269.9981 14.36126313378826
IRIDIUM 22 [-]          
1 24907U 97043E   23356.52082766  .00000779  00000+0  26655-3 0  9999
2 24907  86.3961 341.4093 0002204  90.9061 269.2387 14.35029674378921
DUMMY MASS 1 [-]        
1 24925U 97048A   23356.56412475  .00000705  00000+0  77552-4 0  9994
2 24925  86.3346  26.0317 0004423 268.1490  91.9228 14.85971253424529
DUMMY MASS 2 [-]        
1 24926U 97048B   23356.57199572  .00000695  00000+0  76902-4 0  9992
2 24926  86.3346  27.5397 0005294 284.5201  75.5436 14.85732008424312
IRIDIUM 29 [-]          
1 24944U 97051A   23356.57992082  .00000765  00000+0  25933-3 0  9998
2 24944  86.3959  11.3374 0002010  96.2618 263.8808 14.35487465375400
IRIDIUM 33 [-]          
1 24946U 97051C   23356.58366731  .00000487  00000+0  16684-3 0  9991
2 24946  86.3874  10.6034 0009644  57.8784 302.3346 14.34205093374959
IRIDIUM 28 [-]          
1 24948U 97051E   23356.56159275  .00000712  00000+0  23656-3 0  9992
2 24948  86.3964   9.1733 0002612  87.6095 272.5401 14.36428548375926
